<?xml version="1.0" encoding="UTF-8"?>
<ndm xmlns:xsi="http://www.w3.org/2001/XMLSchema-instance" xsi:noNamespaceSchemaLocation="https://sanaregistry.org/r/ndmxml_unqualified/ndmxml-2.0.0-master-2.0.xsd">
<omm id="CCSDS_OMM_VERS" version="2.0">
<header><CREATION_DATE/><ORIGINATOR/></header><body><segment><metadata><OBJECT_NAME>ORBCOMM FM05</OBJECT_NAME><OBJECT_ID>1997-084F</OBJECT_ID><CENTER_NAME>EARTH</CENTER_NAME><REF_FRAME>TEME</REF_FRAME><TIME_SYSTEM>UTC</TIME_SYSTEM><MEAN_ELEMENT_THEORY>SGP4</MEAN_ELEMENT_THEORY></metadata><data><meanElements><EPOCH>2024-11-25T22:23:04.256160</EPOCH><MEAN_MOTION>14.44531603</MEAN_MOTION><ECCENTRICITY>.00027</ECCENTRICITY><INCLINATION>45.0142</INCLINATION><RA_OF_ASC_NODE>262.9976</RA_OF_ASC_NODE><ARG_OF_PERICENTER>304.9071</ARG_OF_PERICENTER><MEAN_ANOMALY>55.1526</MEAN_ANOMALY></meanElements><tleParameters><EPHEMERIS_TYPE>0</EPHEMERIS_TYPE><CLASSIFICATION_TYPE>U</CLASSIFICATION_TYPE><NORAD_CAT_ID>25117</NORAD_CAT_ID><ELEMENT_SET_NO>999</ELEMENT_SET_NO><REV_AT_EPOCH>41120</REV_AT_EPOCH><BSTAR>.16514E-2</BSTAR><MEAN_MOTION_DOT>.5622E-4</MEAN_MOTION_DOT><MEAN_MOTION_DDOT>0</MEAN_MOTION_DDOT></tleParameters></data></segment></body></omm>
<omm id="CCSDS_OMM_VERS" version="2.0">
<header><CREATION_DATE/><ORIGINATOR/></header><body><segment><metadata><OBJECT_NAME>ORBCOMM FM06</OBJECT_NAME><OBJECT_ID>1997-084G</OBJECT_ID><CENTER_NAME>EARTH</CENTER_NAME><REF_FRAME>TEME</REF_FRAME><TIME_SYSTEM>UTC</TIME_SYSTEM><MEAN_ELEMENT_THEORY>SGP4</MEAN_ELEMENT_THEORY></metadata><data><meanElements><EPOCH>2024-11-25T06:42:40.844160</EPOCH><MEAN_MOTION>14.44692148</MEAN_MOTION><ECCENTRICITY>.0002106</ECCENTRICITY><INCLINATION>45.0135</INCLINATION><RA_OF_ASC_NODE>266.1234</RA_OF_ASC_NODE><ARG_OF_PERICENTER>319.3817</ARG_OF_PERICENTER><MEAN_ANOMALY>168.5329</MEAN_ANOMALY></meanElements><tleParameters><EPHEMERIS_TYPE>0</EPHEMERIS_TYPE><CLASSIFICATION_TYPE>U</CLASSIFICATION_TYPE><NORAD_CAT_ID>25118</NORAD_CAT_ID><ELEMENT_SET_NO>999</ELEMENT_SET_NO><REV_AT_EPOCH>41202</REV_AT_EPOCH><BSTAR>.17484E-2</BSTAR><MEAN_MOTION_DOT>.5981E-4</MEAN_MOTION_DOT><MEAN_MOTION_DDOT>0</MEAN_MOTION_DDOT></tleParameters></data></segment></body></omm>
<omm id="CCSDS_OMM_VERS" version="2.0">
<header><CREATION_DATE/><ORIGINATOR/></header><body><segment><metadata><OBJECT_NAME>ORBCOMM FM07</OBJECT_NAME><OBJECT_ID>1997-084H</OBJECT_ID><CENTER_NAME>EARTH</CENTER_NAME><REF_FRAME>TEME</REF_FRAME><TIME_SYSTEM>UTC</TIME_SYSTEM><MEAN_ELEMENT_THEORY>SGP4</MEAN_ELEMENT_THEORY></metadata><data><meanElements><EPOCH>2024-11-25T21:11:22.461504</EPOCH><MEAN_MOTION>14.44566253</MEAN_MOTION><ECCENTRICITY>.0003191</ECCENTRICITY><INCLINATION>45.0131</INCLINATION><RA_OF_ASC_NODE>263.9197</RA_OF_ASC_NODE><ARG_OF_PERICENTER>291.6908</ARG_OF_PERICENTER><MEAN_ANOMALY>68.3603</MEAN_ANOMALY></meanElements><tleParameters><EPHEMERIS_TYPE>0</EPHEMERIS_TYPE><CLASSIFICATION_TYPE>U</CLASSIFICATION_TYPE><NORAD_CAT_ID>25119</NORAD_CAT_ID><ELEMENT_SET_NO>999</ELEMENT_SET_NO><REV_AT_EPOCH>41210</REV_AT_EPOCH><BSTAR>.15831E-2</BSTAR><MEAN_MOTION_DOT>.5387E-4</MEAN_MOTION_DOT><MEAN_MOTION_DDOT>0</MEAN_MOTION_DDOT></tleParameters></data></segment></body></omm>
<omm id="CCSDS_OMM_VERS" version="2.0">
<header><CREATION_DATE/><ORIGINATOR/></header><body><segment><metadata><OBJECT_NAME>ORBCOMM FM03</OBJECT_NAME><OBJECT_ID>1998-007B</OBJECT_ID><CENTER_NAME>EARTH</CENTER_NAME><REF_FRAME>TEME</REF_FRAME><TIME_SYSTEM>UTC</TIME_SYSTEM><MEAN_ELEMENT_THEORY>SGP4</MEAN_ELEMENT_THEORY></metadata><data><meanElements><EPOCH>2024-11-25T20:36:34.798176</EPOCH><MEAN_MOTION>14.33443211</MEAN_MOTION><ECCENTRICITY>.0048781</ECCENTRICITY><INCLINATION>107.9663</INCLINATION><RA_OF_ASC_NODE>78.1661</RA_OF_ASC_NODE><ARG_OF_PERICENTER>245.0744</ARG_OF_PERICENTER><MEAN_ANOMALY>114.5321</MEAN_ANOMALY></meanElements><tleParameters><EPHEMERIS_TYPE>0</EPHEMERIS_TYPE><CLASSIFICATION_TYPE>U</CLASSIFICATION_TYPE><NORAD_CAT_ID>25158</NORAD_CAT_ID><ELEMENT_SET_NO>999</ELEMENT_SET_NO><REV_AT_EPOCH>39489</REV_AT_EPOCH><BSTAR>.17157E-2</BSTAR><MEAN_MOTION_DOT>.4681E-4</MEAN_MOTION_DOT><MEAN_MOTION_DDOT>0</MEAN_MOTION_DDOT></tleParameters></data></segment></body></omm>
<omm id="CCSDS_OMM_VERS" version="2.0">
<header><CREATION_DATE/><ORIGINATOR/></header><body><segment><metadata><OBJECT_NAME>ORBCOMM FM04</OBJECT_NAME><OBJECT_ID>1998-007C</OBJECT_ID><CENTER_NAME>EARTH</CENTER_NAME><REF_FRAME>TEME</REF_FRAME><TIME_SYSTEM>UTC</TIME_SYSTEM><MEAN_ELEMENT_THEORY>SGP4</MEAN_ELEMENT_THEORY></metadata><data><meanElements><EPOCH>2024-11-25T06:02:35.969280</EPOCH><MEAN_MOTION>14.33707454</MEAN_MOTION><ECCENTRICITY>.0044452</ECCENTRICITY><INCLINATION>107.9647</INCLINATION><RA_OF_ASC_NODE>79.9987</RA_OF_ASC_NODE><ARG_OF_PERICENTER>243.7943</ARG_OF_PERICENTER><MEAN_ANOMALY>115.8622</MEAN_ANOMALY></meanElements><tleParameters><EPHEMERIS_TYPE>0</EPHEMERIS_TYPE><CLASSIFICATION_TYPE>U</CLASSIFICATION_TYPE><NORAD_CAT_ID>25159</NORAD_CAT_ID><ELEMENT_SET_NO>999</ELEMENT_SET_NO><REV_AT_EPOCH>39498</REV_AT_EPOCH><BSTAR>.14432E-2</BSTAR><MEAN_MOTION_DOT>.3928E-4</MEAN_MOTION_DOT><MEAN_MOTION_DDOT>0</MEAN_MOTION_DDOT></tleParameters></data></segment></body></omm>
<omm id="CCSDS_OMM_VERS" version="2.0">
<header><CREATION_DATE/><ORIGINATOR/></header><body><segment><metadata><OBJECT_NAME>ORBCOMM FM17</OBJECT_NAME><OBJECT_ID>1998-046A</OBJECT_ID><CENTER_NAME>EARTH</CENTER_NAME><REF_FRAME>TEME</REF_FRAME><TIME_SYSTEM>UTC</TIME_SYSTEM><MEAN_ELEMENT_THEORY>SGP4</MEAN_ELEMENT_THEORY></metadata><data><meanElements><EPOCH>2024-11-25T20:46:09.131808</EPOCH><MEAN_MOTION>14.34244972</MEAN_MOTION><ECCENTRICITY>.0002499</ECCENTRICITY><INCLINATION>44.9922</INCLINATION><RA_OF_ASC_NODE>136.6260</RA_OF_ASC_NODE><ARG_OF_PERICENTER>246.5764</ARG_OF_PERICENTER><MEAN_ANOMALY>113.4820</MEAN_ANOMALY></meanElements><tleParameters><EPHEMERIS_TYPE>0</EPHEMERIS_TYPE><CLASSIFICATION_TYPE>U</CLASSIFICATION_TYPE><NORAD_CAT_ID>25413</NORAD_CAT_ID><ELEMENT_SET_NO>999</ELEMENT_SET_NO><REV_AT_EPOCH>37397</REV_AT_EPOCH><BSTAR>.12106E-2</BSTAR><MEAN_MOTION_DOT>.3288E-4</MEAN_MOTION_DOT><MEAN_MOTION_DDOT>0</MEAN_MOTION_DDOT></tleParameters></data></segment></body></omm>
<omm id="CCSDS_OMM_VERS" version="2.0">
<header><CREATION_DATE/><ORIGINATOR/></header><body><segment><metadata><OBJECT_NAME>ORBCOMM FM18</OBJECT_NAME><OBJECT_ID>1998-046B</OBJECT_ID><CENTER_NAME>EARTH</CENTER_NAME><REF_FRAME>TEME</REF_FRAME><TIME_SYSTEM>UTC</TIME_SYSTEM><MEAN_ELEMENT_THEORY>SGP4</MEAN_ELEMENT_THEORY></metadata><data><meanElements><EPOCH>2024-11-25T20:53:51.504864</EPOCH><MEAN_MOTION>14.37387500</MEAN_MOTION><ECCENTRICITY>.0004657</ECCENTRICITY><INCLINATION>44.9935</INCLINATION><RA_OF_ASC_NODE>59.2049</RA_OF_ASC_NODE><ARG_OF_PERICENTER>307.3593</ARG_OF_PERICENTER><MEAN_ANOMALY>52.6830</MEAN_ANOMALY></meanElements><tleParameters><EPHEMERIS_TYPE>0</EPHEMERIS_TYPE><CLASSIFICATION_TYPE>U</CLASSIFICATION_TYPE><NORAD_CAT_ID>25414</NORAD_CAT_ID><ELEMENT_SET_NO>999</ELEMENT_SET_NO><REV_AT_EPOCH>37498</REV_AT_EPOCH><BSTAR>.15933E-2</BSTAR><MEAN_MOTION_DOT>.4666E-4</MEAN_MOTION_DOT><MEAN_MOTION_DDOT>0</MEAN_MOTION_DDOT></tleParameters></data></segment></body></omm>
<omm id="CCSDS_OMM_VERS" version="2.0">
<header><CREATION_DATE/><ORIGINATOR/></header><body><segment><metadata><OBJECT_NAME>ORBCOMM FM19</OBJECT_NAME><OBJECT_ID>1998-046C</OBJECT_ID><CENTER_NAME>EARTH</CENTER_NAME><REF_FRAME>TEME</REF_FRAME><TIME_SYSTEM>UTC</TIME_SYSTEM><MEAN_ELEMENT_THEORY>SGP4</MEAN_ELEMENT_THEORY></metadata><data><meanElements><EPOCH>2024-11-25T16:09:53.623584</EPOCH><MEAN_MOTION>14.37211055</MEAN_MOTION><ECCENTRICITY>.0003908</ECCENTRICITY><INCLINATION>44.9945</INCLINATION><RA_OF_ASC_NODE>61.8242</RA_OF_ASC_NODE><ARG_OF_PERICENTER>292.8988</ARG_OF_PERICENTER><MEAN_ANOMALY>180.1366</MEAN_ANOMALY></meanElements><tleParameters><EPHEMERIS_TYPE>0</EPHEMERIS_TYPE><CLASSIFICATION_TYPE>U</CLASSIFICATION_TYPE><NORAD_CAT_ID>25415</NORAD_CAT_ID><ELEMENT_SET_NO>999</ELEMENT_SET_NO><REV_AT_EPOCH>37491</REV_AT_EPOCH><BSTAR>.1446E-2</BSTAR><MEAN_MOTION_DOT>.4205E-4</MEAN_MOTION_DOT><MEAN_MOTION_DDOT>0</MEAN_MOTION_DDOT></tleParameters></data></segment></body></omm>

</ndm>
