ORBCOMM FM05            
1 25117U 97084F   24330.93268815  .00005622  00000+0  16514-2 0  9991
2 25117  45.0142 262.9976 0002700 304.9071  55.1526 14.44531603411201
ORBCOMM FM06            
1 25118U 97084G   24330.27963940  .00005981  00000+0  17484-2 0  9995
2 25118  45.0135 266.1234 0002106 319.3817 168.5329 14.44692148412028
ORBCOMM FM07            
1 25119U 97084H   24330.88289886  .00005387  00000+0  15831-2 0  9997
2 25119  45.0131 263.9197 0003191 291.6908  68.3603 14.44566253412104
ORBCOMM FM03            
1 25158U 98007B   24330.85873609  .00004681  00000+0  17157-2 0  9994
2 25158 107.9663  78.1661 0048781 245.0744 114.5321 14.33443211394894
ORBCOMM FM04            
1 25159U 98007C   24330.25180520  .00003928  00000+0  14432-2 0  9998
2 25159 107.9647  79.9987 0044452 243.7943 115.8622 14.33707454394984
ORBCOMM FM17            
1 25413U 98046A   24330.86538347  .00003288  00000+0  12106-2 0  9990
2 25413  44.9922 136.6260 0002499 246.5764 113.4820 14.34244972373977
ORBCOMM FM18            
1 25414U 98046B   24330.87073501  .00004666  00000+0  15933-2 0  9990
2 25414  44.9935  59.2049 0004657 307.3593  52.6830 14.37387500374986
ORBCOMM FM19            
1 25415U 98046C   24330.67353731  .00004205  00000+0  14460-2 0  9998
2 25415  44.9945  61.8242 0003908 292.8988 180.1366 14.37211055374911
